CS1                     
1 49261U 21088B   26068.75173904  .00015722  00000+0  51176-3 0  9998
2 49261  97.3882 132.1684 0014129  78.0335 282.2490 15.31848439245182
STARLINK-30309          
1 57632U 23122A   26068.41243341 -.00004488  00000+0 -15787-3 0  9993
2 57632  42.9987  94.1486 0001094 299.3962  60.6780 15.26712855142163
